KUIPER-00085            
1 64831U 25151R   26061.44653412  .00005928  00000+0  80568-3 0  9993
2 64831  51.9039 320.1567 0000671 101.0254 259.0784 14.79948451 34400
KUIPER-00086            
1 64832U 25151S   26061.70586100  .00006007  00000+0  81601-3 0  9990
2 64832  51.9022 328.9811 0000764  77.7655 282.3393 14.79946153 34309
KUIPER-00087            
1 64833U 25151T   26061.86043109  .00088420  00000+0  11412-1 0  9995
2 64833  51.9000 310.7867 0000750  44.1105 315.9917 14.80166625 34562
KUIPER-00089            
1 64834U 25151U   26061.71773788 -.00012273  00000+0 -15886-2 0  9998
2 64834  51.9008 316.4088 0001181  50.1659 309.9407 14.79806285 34488
KUIPER-00090            
1 64835U 25151V   26061.65990914  .00003069  00000+0  43137-3 0  9996
2 64835  51.8981 309.2110 0001207  91.5665 268.5436 14.79939105 34579
KUIPER-00091            
1 64836U 25151W   26061.38477399  .00005671  00000+0  77478-3 0  9990
2 64836  51.9019 315.4045 0001050 106.3744 253.7334 14.79791962 34466
KUIPER-00092            
1 64837U 25151X   26061.44383710  .00006038  00000+0  82001-3 0  9997
2 64837  51.9017 322.6375 0000942  92.1888 267.9183 14.79949442 35582
KUIPER-00093            
1 64838U 25151Y   26061.44107192  .00006198  00000+0  84026-3 0  9992
2 64838  51.9010 325.1307 0000961  90.3444 269.7628 14.79986663 34330
KUIPER-00094            
1 64839U 25151Z   26061.66980107  .00004648  00000+0  35033-3 0  9994
2 64839  51.8893 294.6190 0005100 260.9074  99.1322 15.04192283 34784
KUIPER-00081            
1 65132U 25171A   26061.63123622  .00006034  00000+0  81920-3 0  9998
2 65132  51.8999 179.2849 0000394 112.5904 247.5100 14.79965880 31996
KUIPER-00088            
1 65133U 25171B   26061.80141848 -.00425012  00000+0 -60592-1 0  9991
2 65133  51.8991 195.8992 0000308  89.8666 270.2331 14.78653893 31770
KUIPER-00095            
1 65134U 25171C   26061.84866180  .00145292  00000+0  19728-1 0  9991
2 65134  51.8971 176.0254 0001812  73.5692 286.5468 14.77619893 32055
KUIPER-00096            
1 65135U 25171D   26061.65428066  .00000861  00000+0  14188-3 0  9997
2 65135  51.9010 189.1944 0000497 139.3192 220.7807 14.79931686 31859
KUIPER-00097            
1 65136U 25171E   26061.65157964 -.00002472  00000+0 -29543-3 0  9997
2 65136  51.9005 191.8311 0000286 104.5909 255.5085 14.79926942 31806
KUIPER-00098            
1 65137U 25171F   26061.78395832  .00006110  00000+0  82959-3 0  9991
2 65137  51.8998 193.6246 0001971 140.0957 220.0151 14.79942164 31146
KUIPER-00099            
1 65138U 25171G   26061.76168828  .00006581  00000+0  89344-3 0  9990
2 65138  51.9022 183.7135 0000493  53.3048 306.7960 14.79835258 31930
KUIPER-00100            
1 65139U 25171H   26061.66237335  .00001172  00000+0  18263-3 0  9993
2 65139  51.9019 181.6259 0000576  97.6411 262.4617 14.79941844 31956
