[{"OBJECT_NAME":"KUIPER-00085","OBJECT_ID":"2025-151R","EPOCH":"2026-03-02T10:43:00.547968","MEAN_MOTION":14.79948451,"ECCENTRICITY":6.714e-5,"INCLINATION":51.9039,"RA_OF_ASC_NODE":320.1567,"ARG_OF_PERICENTER":101.0254,"MEAN_ANOMALY":259.0784,"EPHEMERIS_TYPE":0,"CLASSIFICATION_TYPE":"U","NORAD_CAT_ID":64831,"ELEMENT_SET_NO":999,"REV_AT_EPOCH":3440,"BSTAR":0.00080568323,"MEAN_MOTION_DOT":5.928e-5,"MEAN_MOTION_DDOT":0},{"OBJECT_NAME":"KUIPER-00086","OBJECT_ID":"2025-151S","EPOCH":"2026-03-02T16:56:26.390400","MEAN_MOTION":14.79946153,"ECCENTRICITY":7.64e-5,"INCLINATION":51.9022,"RA_OF_ASC_NODE":328.9811,"ARG_OF_PERICENTER":77.7655,"MEAN_ANOMALY":282.3393,"EPHEMERIS_TYPE":0,"CLASSIFICATION_TYPE":"U","NORAD_CAT_ID":64832,"ELEMENT_SET_NO":999,"REV_AT_EPOCH":3430,"BSTAR":0.00081601,"MEAN_MOTION_DOT":6.007e-5,"MEAN_MOTION_DDOT":0},{"OBJECT_NAME":"KUIPER-00087","OBJECT_ID":"2025-151T","EPOCH":"2026-03-02T20:39:01.246176","MEAN_MOTION":14.80166625,"ECCENTRICITY":7.5e-5,"INCLINATION":51.9,"RA_OF_ASC_NODE":310.7867,"ARG_OF_PERICENTER":44.1105,"MEAN_ANOMALY":315.9917,"EPHEMERIS_TYPE":0,"CLASSIFICATION_TYPE":"U","NORAD_CAT_ID":64833,"ELEMENT_SET_NO":999,"REV_AT_EPOCH":3456,"BSTAR":0.011412,"MEAN_MOTION_DOT":0.0008842,"MEAN_MOTION_DDOT":0},{"OBJECT_NAME":"KUIPER-00089","OBJECT_ID":"2025-151U","EPOCH":"2026-03-02T17:13:32.552832","MEAN_MOTION":14.79806285,"ECCENTRICITY":0.0001181,"INCLINATION":51.9008,"RA_OF_ASC_NODE":316.4088,"ARG_OF_PERICENTER":50.1659,"MEAN_ANOMALY":309.9407,"EPHEMERIS_TYPE":0,"CLASSIFICATION_TYPE":"U","NORAD_CAT_ID":64834,"ELEMENT_SET_NO":999,"REV_AT_EPOCH":3448,"BSTAR":-0.0015886,"MEAN_MOTION_DOT":-0.00012273,"MEAN_MOTION_DDOT":0},{"OBJECT_NAME":"KUIPER-00090","OBJECT_ID":"2025-151V","EPOCH":"2026-03-02T15:50:16.149696","MEAN_MOTION":14.79939105,"ECCENTRICITY":0.0001207,"INCLINATION":51.8981,"RA_OF_ASC_NODE":309.211,"ARG_OF_PERICENTER":91.5665,"MEAN_ANOMALY":268.5436,"EPHEMERIS_TYPE":0,"CLASSIFICATION_TYPE":"U","NORAD_CAT_ID":64835,"ELEMENT_SET_NO":999,"REV_AT_EPOCH":3457,"BSTAR":0.00043137,"MEAN_MOTION_DOT":3.069e-5,"MEAN_MOTION_DDOT":0},{"OBJECT_NAME":"KUIPER-00091","OBJECT_ID":"2025-151W","EPOCH":"2026-03-02T09:14:04.472736","MEAN_MOTION":14.79791962,"ECCENTRICITY":0.00010503,"INCLINATION":51.9019,"RA_OF_ASC_NODE":315.4045,"ARG_OF_PERICENTER":106.3744,"MEAN_ANOMALY":253.7334,"EPHEMERIS_TYPE":0,"CLASSIFICATION_TYPE":"U","NORAD_CAT_ID":64836,"ELEMENT_SET_NO":999,"REV_AT_EPOCH":3446,"BSTAR":0.00077477509,"MEAN_MOTION_DOT":5.671e-5,"MEAN_MOTION_DDOT":0},{"OBJECT_NAME":"KUIPER-00092","OBJECT_ID":"2025-151X","EPOCH":"2026-03-02T10:39:07.525440","MEAN_MOTION":14.79949442,"ECCENTRICITY":9.427e-5,"INCLINATION":51.9017,"RA_OF_ASC_NODE":322.6375,"ARG_OF_PERICENTER":92.1888,"MEAN_ANOMALY":267.9183,"EPHEMERIS_TYPE":0,"CLASSIFICATION_TYPE":"U","NORAD_CAT_ID":64837,"ELEMENT_SET_NO":999,"REV_AT_EPOCH":3558,"BSTAR":0.00082000633,"MEAN_MOTION_DOT":6.038e-5,"MEAN_MOTION_DDOT":0},{"OBJECT_NAME":"KUIPER-00093","OBJECT_ID":"2025-151Y","EPOCH":"2026-03-02T10:35:08.613888","MEAN_MOTION":14.79986663,"ECCENTRICITY":9.61e-5,"INCLINATION":51.901,"RA_OF_ASC_NODE":325.1307,"ARG_OF_PERICENTER":90.3444,"MEAN_ANOMALY":269.7628,"EPHEMERIS_TYPE":0,"CLASSIFICATION_TYPE":"U","NORAD_CAT_ID":64838,"ELEMENT_SET_NO":999,"REV_AT_EPOCH":3433,"BSTAR":0.00084026132,"MEAN_MOTION_DOT":6.198e-5,"MEAN_MOTION_DDOT":0},{"OBJECT_NAME":"KUIPER-00094","OBJECT_ID":"2025-151Z","EPOCH":"2026-03-02T16:04:30.812448","MEAN_MOTION":15.04192283,"ECCENTRICITY":0.00051,"INCLINATION":51.8893,"RA_OF_ASC_NODE":294.619,"ARG_OF_PERICENTER":260.9074,"MEAN_ANOMALY":99.1322,"EPHEMERIS_TYPE":0,"CLASSIFICATION_TYPE":"U","NORAD_CAT_ID":64839,"ELEMENT_SET_NO":999,"REV_AT_EPOCH":3478,"BSTAR":0.00035033,"MEAN_MOTION_DOT":4.648e-5,"MEAN_MOTION_DDOT":0},{"OBJECT_NAME":"KUIPER-00081","OBJECT_ID":"2025-171A","EPOCH":"2026-03-02T15:08:58.809408","MEAN_MOTION":14.7996588,"ECCENTRICITY":3.94e-5,"INCLINATION":51.8999,"RA_OF_ASC_NODE":179.2849,"ARG_OF_PERICENTER":112.5904,"MEAN_ANOMALY":247.51,"EPHEMERIS_TYPE":0,"CLASSIFICATION_TYPE":"U","NORAD_CAT_ID":65132,"ELEMENT_SET_NO":999,"REV_AT_EPOCH":3199,"BSTAR":0.0008192,"MEAN_MOTION_DOT":6.034e-5,"MEAN_MOTION_DDOT":0},{"OBJECT_NAME":"KUIPER-00088","OBJECT_ID":"2025-171B","EPOCH":"2026-03-02T19:14:02.556672","MEAN_MOTION":14.78653893,"ECCENTRICITY":3.08e-5,"INCLINATION":51.8991,"RA_OF_ASC_NODE":195.8992,"ARG_OF_PERICENTER":89.8666,"MEAN_ANOMALY":270.2331,"EPHEMERIS_TYPE":0,"CLASSIFICATION_TYPE":"U","NORAD_CAT_ID":65133,"ELEMENT_SET_NO":999,"REV_AT_EPOCH":3177,"BSTAR":-0.060592,"MEAN_MOTION_DOT":-0.00425012,"MEAN_MOTION_DDOT":0},{"OBJECT_NAME":"KUIPER-00095","OBJECT_ID":"2025-171C","EPOCH":"2026-03-02T20:22:04.379520","MEAN_MOTION":14.77619893,"ECCENTRICITY":0.0001812,"INCLINATION":51.8971,"RA_OF_ASC_NODE":176.0254,"ARG_OF_PERICENTER":73.5692,"MEAN_ANOMALY":286.5468,"EPHEMERIS_TYPE":0,"CLASSIFICATION_TYPE":"U","NORAD_CAT_ID":65134,"ELEMENT_SET_NO":999,"REV_AT_EPOCH":3205,"BSTAR":0.019728,"MEAN_MOTION_DOT":0.00145292,"MEAN_MOTION_DDOT":0},{"OBJECT_NAME":"KUIPER-00096","OBJECT_ID":"2025-171D","EPOCH":"2026-03-02T15:42:09.849024","MEAN_MOTION":14.79931686,"ECCENTRICITY":4.97e-5,"INCLINATION":51.901,"RA_OF_ASC_NODE":189.1944,"ARG_OF_PERICENTER":139.3192,"MEAN_ANOMALY":220.7807,"EPHEMERIS_TYPE":0,"CLASSIFICATION_TYPE":"U","NORAD_CAT_ID":65135,"ELEMENT_SET_NO":999,"REV_AT_EPOCH":3185,"BSTAR":0.00014188,"MEAN_MOTION_DOT":8.61e-6,"MEAN_MOTION_DDOT":0},{"OBJECT_NAME":"KUIPER-00097","OBJECT_ID":"2025-171E","EPOCH":"2026-03-02T15:38:16.480896","MEAN_MOTION":14.79926942,"ECCENTRICITY":2.86e-5,"INCLINATION":51.9005,"RA_OF_ASC_NODE":191.8311,"ARG_OF_PERICENTER":104.5909,"MEAN_ANOMALY":255.5085,"EPHEMERIS_TYPE":0,"CLASSIFICATION_TYPE":"U","NORAD_CAT_ID":65136,"ELEMENT_SET_NO":999,"REV_AT_EPOCH":3180,"BSTAR":-0.00029543,"MEAN_MOTION_DOT":-2.472e-5,"MEAN_MOTION_DDOT":0},{"OBJECT_NAME":"KUIPER-00098","OBJECT_ID":"2025-171F","EPOCH":"2026-03-02T18:48:53.998848","MEAN_MOTION":14.79942164,"ECCENTRICITY":0.0001971,"INCLINATION":51.8998,"RA_OF_ASC_NODE":193.6246,"ARG_OF_PERICENTER":140.0957,"MEAN_ANOMALY":220.0151,"EPHEMERIS_TYPE":0,"CLASSIFICATION_TYPE":"U","NORAD_CAT_ID":65137,"ELEMENT_SET_NO":999,"REV_AT_EPOCH":3114,"BSTAR":0.00082959,"MEAN_MOTION_DOT":6.11e-5,"MEAN_MOTION_DDOT":0},{"OBJECT_NAME":"KUIPER-00099","OBJECT_ID":"2025-171G","EPOCH":"2026-03-02T18:16:49.867392","MEAN_MOTION":14.79835258,"ECCENTRICITY":4.93e-5,"INCLINATION":51.9022,"RA_OF_ASC_NODE":183.7135,"ARG_OF_PERICENTER":53.3048,"MEAN_ANOMALY":306.796,"EPHEMERIS_TYPE":0,"CLASSIFICATION_TYPE":"U","NORAD_CAT_ID":65138,"ELEMENT_SET_NO":999,"REV_AT_EPOCH":3193,"BSTAR":0.00089344,"MEAN_MOTION_DOT":6.581e-5,"MEAN_MOTION_DDOT":0},{"OBJECT_NAME":"KUIPER-00100","OBJECT_ID":"2025-171H","EPOCH":"2026-03-02T15:53:49.057440","MEAN_MOTION":14.79941844,"ECCENTRICITY":5.76e-5,"INCLINATION":51.9019,"RA_OF_ASC_NODE":181.6259,"ARG_OF_PERICENTER":97.6411,"MEAN_ANOMALY":262.4617,"EPHEMERIS_TYPE":0,"CLASSIFICATION_TYPE":"U","NORAD_CAT_ID":65139,"ELEMENT_SET_NO":999,"REV_AT_EPOCH":3195,"BSTAR":0.00018263,"MEAN_MOTION_DOT":1.172e-5,"MEAN_MOTION_DDOT":0}]
